ONEWEB-0198             
1 48216U 21031G   26023.52679767 -.00000157  00000+0 -45750-3 0  9998
2 48216  87.9029 318.5529 0001475  90.8515 269.2784 13.14503139229489
ONEWEB-0189             
1 48217U 21031H   26023.31099094 -.00000067  00000+0 -21491-3 0  9991
2 48217  87.9031 318.5712 0001495  88.0190 272.1111 13.14503377229196
ONEWEB-0196             
1 48218U 21031J   26023.36490043 -.00000020  00000+0 -88188-4 0  9992
2 48218  87.9027 318.5728 0001679  82.7863 277.3458 13.14502173229207
ONEWEB-0183             
1 48219U 21031K   26023.56788328  .00000232  00000+0  59201-3 0  9997
2 48219  87.9018 318.5337 0001943  79.6824 280.4525 13.14504514229324
ONEWEB-0185             
1 48220U 21031L   26023.28957987 -.00000048  00000+0 -16518-3 0  9998
2 48220  87.9033 318.5717 0002047  87.4559 272.6805 13.14501965229212
ONEWEB-0187             
1 48221U 21031M   26023.57409710  .00000302  00000+0  78009-3 0  9991
2 48221  87.9022 318.5516 0001752  86.9012 273.2319 13.14504157229266
ONEWEB-0192             
1 48222U 21031N   26023.54409398 -.00000074  00000+0 -23523-3 0  9990
2 48222  87.9020 318.5469 0001630  78.9440 281.1873 13.14504240229179
ONEWEB-0219             
1 48223U 21031P   26023.37124652 -.00000109  00000+0 -32967-3 0  9990
2 48223  87.9031 318.5627 0001863  85.4648 274.6695 13.14503811229351
ONEWEB-0202             
1 48224U 21031Q   26023.50444589  .00000189  00000+0  47599-3 0  9993
2 48224  87.9022 318.5462 0001133  96.6414 263.4845 13.14504087229353
ONEWEB-0204             
1 48225U 21031R   26023.31018812 -.00000089  00000+0 -27513-3 0  9994
2 48225  87.9032 318.5772 0002088  79.9844 280.1521 13.14502507229228
ONEWEB-0205             
1 48226U 21031S   26023.51397282  .00000095  00000+0  22245-3 0  9990
2 48226  87.9030 318.5292 0001795  83.4341 276.6994 13.14503726229262
ONEWEB-0206             
1 48227U 21031T   26023.56313230  .00000215  00000+0  54678-3 0  9996
2 48227  87.9039 318.5144 0001657  69.7990 290.3318 13.14502855229223
ONEWEB-0182             
1 48228U 21031U   26023.33001632  .00000188  00000+0  47264-3 0  9994
2 48228  87.9019 318.5808 0001977  78.1918 281.9433 13.14504522229405
ONEWEB-0186             
1 48229U 21031V   26023.56948275  .00000294  00000+0  75933-3 0  9995
2 48229  87.9032 318.5164 0001719  81.8919 278.2406 13.14503898229383
ONEWEB-0181             
1 48230U 21031W   26023.54727662 -.00000165  00000+0 -48031-3 0  9998
2 48230  87.9016 318.5687 0001661  83.7654 276.3665 13.14502984229235
ONEWEB-0188             
1 48231U 21031X   26023.50920019  .00000106  00000+0  25277-3 0  9996
2 48231  87.9021 318.5736 0001767  78.5864 281.5464 13.14505100229136
