[{"OBJECT_NAME":"ONEWEB-0198","OBJECT_ID":"2021-031G","EPOCH":"2026-01-23T12:38:35.318688","MEAN_MOTION":13.14503139,"ECCENTRICITY":0.00014753,"INCLINATION":87.9029,"RA_OF_ASC_NODE":318.5529,"ARG_OF_PERICENTER":90.8515,"MEAN_ANOMALY":269.2784,"EPHEMERIS_TYPE":0,"CLASSIFICATION_TYPE":"U","NORAD_CAT_ID":48216,"ELEMENT_SET_NO":999,"REV_AT_EPOCH":22948,"BSTAR":-0.00045750418,"MEAN_MOTION_DOT":-1.57e-6,"MEAN_MOTION_DDOT":0},{"OBJECT_NAME":"ONEWEB-0189","OBJECT_ID":"2021-031H","EPOCH":"2026-01-23T07:27:49.617216","MEAN_MOTION":13.14503377,"ECCENTRICITY":0.00014956,"INCLINATION":87.9031,"RA_OF_ASC_NODE":318.5712,"ARG_OF_PERICENTER":88.019,"MEAN_ANOMALY":272.1111,"EPHEMERIS_TYPE":0,"CLASSIFICATION_TYPE":"U","NORAD_CAT_ID":48217,"ELEMENT_SET_NO":999,"REV_AT_EPOCH":22919,"BSTAR":-0.00021490745,"MEAN_MOTION_DOT":-6.7e-7,"MEAN_MOTION_DDOT":0},{"OBJECT_NAME":"ONEWEB-0196","OBJECT_ID":"2021-031J","EPOCH":"2026-01-23T08:45:27.397152","MEAN_MOTION":13.14502173,"ECCENTRICITY":0.00016798,"INCLINATION":87.9027,"RA_OF_ASC_NODE":318.5728,"ARG_OF_PERICENTER":82.7863,"MEAN_ANOMALY":277.3458,"EPHEMERIS_TYPE":0,"CLASSIFICATION_TYPE":"U","NORAD_CAT_ID":48218,"ELEMENT_SET_NO":999,"REV_AT_EPOCH":22920,"BSTAR":-8.8187712e-5,"MEAN_MOTION_DOT":-2.0e-7,"MEAN_MOTION_DDOT":0},{"OBJECT_NAME":"ONEWEB-0183","OBJECT_ID":"2021-031K","EPOCH":"2026-01-23T13:37:45.115392","MEAN_MOTION":13.14504514,"ECCENTRICITY":0.00019436,"INCLINATION":87.9018,"RA_OF_ASC_NODE":318.5337,"ARG_OF_PERICENTER":79.6824,"MEAN_ANOMALY":280.4525,"EPHEMERIS_TYPE":0,"CLASSIFICATION_TYPE":"U","NORAD_CAT_ID":48219,"ELEMENT_SET_NO":999,"REV_AT_EPOCH":22932,"BSTAR":0.00059201216,"MEAN_MOTION_DOT":2.32e-6,"MEAN_MOTION_DDOT":0},{"OBJECT_NAME":"ONEWEB-0185","OBJECT_ID":"2021-031L","EPOCH":"2026-01-23T06:56:59.700768","MEAN_MOTION":13.14501965,"ECCENTRICITY":0.00020477,"INCLINATION":87.9033,"RA_OF_ASC_NODE":318.5717,"ARG_OF_PERICENTER":87.4559,"MEAN_ANOMALY":272.6805,"EPHEMERIS_TYPE":0,"CLASSIFICATION_TYPE":"U","NORAD_CAT_ID":48220,"ELEMENT_SET_NO":999,"REV_AT_EPOCH":22921,"BSTAR":-0.00016517599,"MEAN_MOTION_DOT":-4.8e-7,"MEAN_MOTION_DDOT":0},{"OBJECT_NAME":"ONEWEB-0187","OBJECT_ID":"2021-031M","EPOCH":"2026-01-23T13:46:41.989440","MEAN_MOTION":13.14504157,"ECCENTRICITY":0.00017522,"INCLINATION":87.9022,"RA_OF_ASC_NODE":318.5516,"ARG_OF_PERICENTER":86.9012,"MEAN_ANOMALY":273.2319,"EPHEMERIS_TYPE":0,"CLASSIFICATION_TYPE":"U","NORAD_CAT_ID":48221,"ELEMENT_SET_NO":999,"REV_AT_EPOCH":22926,"BSTAR":0.00078008549,"MEAN_MOTION_DOT":3.02e-6,"MEAN_MOTION_DDOT":0},{"OBJECT_NAME":"ONEWEB-0192","OBJECT_ID":"2021-031N","EPOCH":"2026-01-23T13:03:29.719872","MEAN_MOTION":13.1450424,"ECCENTRICITY":0.000163,"INCLINATION":87.902,"RA_OF_ASC_NODE":318.5469,"ARG_OF_PERICENTER":78.944,"MEAN_ANOMALY":281.1873,"EPHEMERIS_TYPE":0,"CLASSIFICATION_TYPE":"U","NORAD_CAT_ID":48222,"ELEMENT_SET_NO":999,"REV_AT_EPOCH":22917,"BSTAR":-0.0002352259,"MEAN_MOTION_DOT":-7.4e-7,"MEAN_MOTION_DDOT":0},{"OBJECT_NAME":"ONEWEB-0219","OBJECT_ID":"2021-031P","EPOCH":"2026-01-23T08:54:35.699328","MEAN_MOTION":13.14503811,"ECCENTRICITY":0.00018632,"INCLINATION":87.9031,"RA_OF_ASC_NODE":318.5627,"ARG_OF_PERICENTER":85.4648,"MEAN_ANOMALY":274.6695,"EPHEMERIS_TYPE":0,"CLASSIFICATION_TYPE":"U","NORAD_CAT_ID":48223,"ELEMENT_SET_NO":999,"REV_AT_EPOCH":22935,"BSTAR":-0.00032966647,"MEAN_MOTION_DOT":-1.09e-6,"MEAN_MOTION_DDOT":0},{"OBJECT_NAME":"ONEWEB-0202","OBJECT_ID":"2021-031Q","EPOCH":"2026-01-23T12:06:24.124896","MEAN_MOTION":13.14504087,"ECCENTRICITY":0.0001133,"INCLINATION":87.9022,"RA_OF_ASC_NODE":318.5462,"ARG_OF_PERICENTER":96.6414,"MEAN_ANOMALY":263.4845,"EPHEMERIS_TYPE":0,"CLASSIFICATION_TYPE":"U","NORAD_CAT_ID":48224,"ELEMENT_SET_NO":999,"REV_AT_EPOCH":22935,"BSTAR":0.00047599238,"MEAN_MOTION_DOT":1.89e-6,"MEAN_MOTION_DDOT":0},{"OBJECT_NAME":"ONEWEB-0204","OBJECT_ID":"2021-031R","EPOCH":"2026-01-23T07:26:40.253568","MEAN_MOTION":13.14502507,"ECCENTRICITY":0.00020887,"INCLINATION":87.9032,"RA_OF_ASC_NODE":318.5772,"ARG_OF_PERICENTER":79.9844,"MEAN_ANOMALY":280.1521,"EPHEMERIS_TYPE":0,"CLASSIFICATION_TYPE":"U","NORAD_CAT_ID":48225,"ELEMENT_SET_NO":999,"REV_AT_EPOCH":22922,"BSTAR":-0.00027513243,"MEAN_MOTION_DOT":-8.9e-7,"MEAN_MOTION_DDOT":0},{"OBJECT_NAME":"ONEWEB-0205","OBJECT_ID":"2021-031S","EPOCH":"2026-01-23T12:20:07.251648","MEAN_MOTION":13.14503726,"ECCENTRICITY":0.00017959,"INCLINATION":87.903,"RA_OF_ASC_NODE":318.5292,"ARG_OF_PERICENTER":83.4341,"MEAN_ANOMALY":276.6994,"EPHEMERIS_TYPE":0,"CLASSIFICATION_TYPE":"U","NORAD_CAT_ID":48226,"ELEMENT_SET_NO":999,"REV_AT_EPOCH":22926,"BSTAR":0.00022244735,"MEAN_MOTION_DOT":9.5e-7,"MEAN_MOTION_DDOT":0},{"OBJECT_NAME":"ONEWEB-0206","OBJECT_ID":"2021-031T","EPOCH":"2026-01-23T13:30:54.630720","MEAN_MOTION":13.14502855,"ECCENTRICITY":0.00016571,"INCLINATION":87.9039,"RA_OF_ASC_NODE":318.5144,"ARG_OF_PERICENTER":69.799,"MEAN_ANOMALY":290.3318,"EPHEMERIS_TYPE":0,"CLASSIFICATION_TYPE":"U","NORAD_CAT_ID":48227,"ELEMENT_SET_NO":999,"REV_AT_EPOCH":22922,"BSTAR":0.00054678222,"MEAN_MOTION_DOT":2.15e-6,"MEAN_MOTION_DDOT":0},{"OBJECT_NAME":"ONEWEB-0182","OBJECT_ID":"2021-031U","EPOCH":"2026-01-23T07:55:13.410048","MEAN_MOTION":13.14504522,"ECCENTRICITY":0.0001977,"INCLINATION":87.9019,"RA_OF_ASC_NODE":318.5808,"ARG_OF_PERICENTER":78.1918,"MEAN_ANOMALY":281.9433,"EPHEMERIS_TYPE":0,"CLASSIFICATION_TYPE":"U","NORAD_CAT_ID":48228,"ELEMENT_SET_NO":999,"REV_AT_EPOCH":22940,"BSTAR":0.00047264444,"MEAN_MOTION_DOT":1.88e-6,"MEAN_MOTION_DDOT":0},{"OBJECT_NAME":"ONEWEB-0186","OBJECT_ID":"2021-031V","EPOCH":"2026-01-23T13:40:03.309600","MEAN_MOTION":13.14503898,"ECCENTRICITY":0.00017192,"INCLINATION":87.9032,"RA_OF_ASC_NODE":318.5164,"ARG_OF_PERICENTER":81.8919,"MEAN_ANOMALY":278.2406,"EPHEMERIS_TYPE":0,"CLASSIFICATION_TYPE":"U","NORAD_CAT_ID":48229,"ELEMENT_SET_NO":999,"REV_AT_EPOCH":22938,"BSTAR":0.00075932675,"MEAN_MOTION_DOT":2.94e-6,"MEAN_MOTION_DDOT":0},{"OBJECT_NAME":"ONEWEB-0181","OBJECT_ID":"2021-031W","EPOCH":"2026-01-23T13:08:04.699968","MEAN_MOTION":13.14502984,"ECCENTRICITY":0.00016619,"INCLINATION":87.9016,"RA_OF_ASC_NODE":318.5687,"ARG_OF_PERICENTER":83.7654,"MEAN_ANOMALY":276.3665,"EPHEMERIS_TYPE":0,"CLASSIFICATION_TYPE":"U","NORAD_CAT_ID":48230,"ELEMENT_SET_NO":999,"REV_AT_EPOCH":22923,"BSTAR":-0.00048031474,"MEAN_MOTION_DOT":-1.65e-6,"MEAN_MOTION_DDOT":0},{"OBJECT_NAME":"ONEWEB-0188","OBJECT_ID":"2021-031X","EPOCH":"2026-01-23T12:13:14.896416","MEAN_MOTION":13.145051,"ECCENTRICITY":0.00017674,"INCLINATION":87.9021,"RA_OF_ASC_NODE":318.5736,"ARG_OF_PERICENTER":78.5864,"MEAN_ANOMALY":281.5464,"EPHEMERIS_TYPE":0,"CLASSIFICATION_TYPE":"U","NORAD_CAT_ID":48231,"ELEMENT_SET_NO":999,"REV_AT_EPOCH":22913,"BSTAR":0.0002527745,"MEAN_MOTION_DOT":1.06e-6,"MEAN_MOTION_DDOT":0}]
